{
"type": "FeatureCollection",
"name": "coworkingSpacesLibraries",
"crs": { "type": "name", "properties": { "name": "urn:ogc:def:crs:OGC:1.3:CRS84" } },
"features": [
{ "type": "Feature", "properties": { "id": "node/2568134378", "@id": "node/2568134378", "addr:city": null, "addr:housenumber": "285", "addr:postcode": "11238", "addr:state": null, "addr:street": "Greene Avenue", "amenity": "coworking_space", "branch": "Clinton Hill", "check_date": null, "comment": null, "name": "Framework", "opening_hours": null, "operator": null, "operator:short": null, "operator:type": null, "operator:wikidata": null, "operator:wikipedia": null, "phone": null, "religion": null, "website": "https://framework.nyc" }, "geometry": { "type": "Point", "coordinates": [ -73.9602443, 40.6874721 ] } },
{ "type": "Feature", "properties": { "id": "node/5891517722", "@id": "node/5891517722", "addr:city": null, "addr:housenumber": null, "addr:postcode": null, "addr:state": null, "addr:street": null, "amenity": "library", "branch": null, "check_date": "2024-01-10", "comment": null, "name": "Alul Bayt Islamic Library", "opening_hours": null, "operator": null, "operator:short": null, "operator:type": null, "operator:wikidata": null, "operator:wikipedia": null, "phone": "+1-718-852-1390", "religion": "muslim", "website": null }, "geometry": { "type": "Point", "coordinates": [ -73.9794043, 40.6849938 ] } },
{ "type": "Feature", "properties": { "id": "node/6465844926", "@id": "node/6465844926", "addr:city": null, "addr:housenumber": "41", "addr:postcode": "11217", "addr:state": null, "addr:street": "Flatbush Avenue", "amenity": "coworking_space", "branch": null, "check_date": null, "comment": null, "name": "Spaces", "opening_hours": null, "operator": null, "operator:short": null, "operator:type": null, "operator:wikidata": null, "operator:wikipedia": null, "phone": "+1-929-298-4700", "religion": null, "website": "https://www.spacesworks.com/new-york-city/fort-greene/" }, "geometry": { "type": "Point", "coordinates": [ -73.9797697, 40.6875784 ] } },
{ "type": "Feature", "properties": { "id": "node/6573693094", "@id": "node/6573693094", "addr:city": null, "addr:housenumber": null, "addr:postcode": null, "addr:state": null, "addr:street": null, "amenity": "library", "branch": null, "check_date": "2024-09-30", "comment": "opened in 2019", "name": "Brooklyn Heights Library", "opening_hours": null, "operator": null, "operator:short": null, "operator:type": null, "operator:wikidata": null, "operator:wikipedia": null, "phone": null, "religion": null, "website": null }, "geometry": { "type": "Point", "coordinates": [ -73.9913091, 40.695797 ] } },
{ "type": "Feature", "properties": { "id": "node/9633577330", "@id": "node/9633577330", "addr:city": "Brooklyn", "addr:housenumber": "9", "addr:postcode": "11201", "addr:state": "NY", "addr:street": "Adams Street", "amenity": "library", "branch": null, "check_date": null, "comment": null, "name": "Adams Street Library", "opening_hours": "Mo,We,Fr 10:00-18:00; Tu 13:00-20:00; Th 10:00-20:00; Sa 10:00-17:00", "operator": "New York Public Library", "operator:short": "NYPL", "operator:type": "public", "operator:wikidata": "Q219555", "operator:wikipedia": "en:New York Public Library", "phone": "+1-718-230-2264", "religion": null, "website": "https://www.bklynlibrary.org/locations/adams-street" }, "geometry": { "type": "Point", "coordinates": [ -73.988277, 40.7043774 ] } }
]
}
