{
"type": "FeatureCollection",
"name": "fitnesscenter",
"crs": { "type": "name", "properties": { "name": "urn:ogc:def:crs:OGC:1.3:CRS84" } },
"features": [
{ "type": "Feature", "properties": { "id": "node/2550002274", "@id": "node/2550002274", "addr:city": null, "addr:housenumber": "309", "addr:postcode": "11201", "addr:state": null, "addr:street": "Atlantic Avenue", "addr:unit": null, "alt_name": null, "branch": null, "brand": null, "brand:wikidata": null, "check_date": null, "contact:facebook": null, "fixme": null, "healthcare": null, "leisure": "fitness_centre", "level": null, "name": "Metamorphosis", "note": null, "opening_hours": null, "phone": "+1-718-305-4001", "ref": null, "short_name": null, "sport": "pilates", "swimming_pool": null, "website": "https://www.studiometamorphosis.com/location/brooklyn-ny", "wheelchair": null }, "geometry": { "type": "Point", "coordinates": [ -73.9882988, 40.6884563 ] } },
{ "type": "Feature", "properties": { "id": "node/2550066416", "@id": "node/2550066416", "addr:city": null, "addr:housenumber": "130", "addr:postcode": "11217", "addr:state": null, "addr:street": "Nevins Street", "addr:unit": null, "alt_name": null, "branch": null, "brand": null, "brand:wikidata": null, "check_date": null, "contact:facebook": null, "fixme": null, "healthcare": "alternative", "leisure": "fitness_centre", "level": null, "name": "Home", "note": null, "opening_hours": null, "phone": null, "ref": null, "short_name": null, "sport": "yoga", "swimming_pool": null, "website": null, "wheelchair": null }, "geometry": { "type": "Point", "coordinates": [ -73.9837751, 40.684617 ] } },
{ "type": "Feature", "properties": { "id": "node/2568110466", "@id": "node/2568110466", "addr:city": null, "addr:housenumber": null, "addr:postcode": null, "addr:state": null, "addr:street": null, "addr:unit": null, "alt_name": "Fflow Pilates", "branch": null, "brand": null, "brand:wikidata": null, "check_date": null, "contact:facebook": null, "fixme": null, "healthcare": null, "leisure": "fitness_centre", "level": null, "name": "Flow Pilates", "note": null, "opening_hours": null, "phone": "+1-718-783-3900", "ref": null, "short_name": null, "sport": "pilates", "swimming_pool": null, "website": "https://flowpilatesny.com", "wheelchair": null }, "geometry": { "type": "Point", "coordinates": [ -73.961331, 40.6851902 ] } },
{ "type": "Feature", "properties": { "id": "node/2568554110", "@id": "node/2568554110", "addr:city": null, "addr:housenumber": "117", "addr:postcode": "11201", "addr:state": null, "addr:street": "Front Street", "addr:unit": null, "alt_name": null, "branch": null, "brand": "Equinox", "brand:wikidata": "Q5384535", "check_date": null, "contact:facebook": null, "fixme": null, "healthcare": null, "leisure": "fitness_centre", "level": null, "name": "Equinox", "note": null, "opening_hours": null, "phone": "+1-347-435-2341", "ref": null, "short_name": null, "sport": null, "swimming_pool": null, "website": "https://www.equinox.com/clubs/new-york/brooklyn/dumbo", "wheelchair": null }, "geometry": { "type": "Point", "coordinates": [ -73.9888933, 40.7025962 ] } },
{ "type": "Feature", "properties": { "id": "node/2572920407", "@id": "node/2572920407", "addr:city": "Brooklyn", "addr:housenumber": "691", "addr:postcode": "11217", "addr:state": "NY", "addr:street": "Fulton Street", "addr:unit": null, "alt_name": null, "branch": null, "brand": "Crunch Fitness", "brand:wikidata": "Q5190093", "check_date": null, "contact:facebook": null, "fixme": null, "healthcare": null, "leisure": "fitness_centre", "level": null, "name": "Crunch Fitness", "note": null, "opening_hours": null, "phone": "+1-718-797-9464", "ref": null, "short_name": null, "sport": null, "swimming_pool": null, "website": "https://www.crunch.com/locations/ft-greene", "wheelchair": null }, "geometry": { "type": "Point", "coordinates": [ -73.9779866, 40.687889 ] } },
{ "type": "Feature", "properties": { "id": "node/4919818061", "@id": "node/4919818061", "addr:city": null, "addr:housenumber": "225", "addr:postcode": "11201", "addr:state": null, "addr:street": "Schermerhorn Street", "addr:unit": null, "alt_name": null, "branch": null, "brand": null, "brand:wikidata": null, "check_date": null, "contact:facebook": null, "fixme": null, "healthcare": null, "leisure": "fitness_centre", "level": null, "name": "Tangerine Hot Power Yoga", "note": null, "opening_hours": null, "phone": "+1-718-855-8622", "ref": null, "short_name": null, "sport": "yoga", "swimming_pool": null, "website": "https://tangerine.yoga/", "wheelchair": null }, "geometry": { "type": "Point", "coordinates": [ -73.9850286, 40.688738 ] } },
{ "type": "Feature", "properties": { "id": "node/5804810612", "@id": "node/5804810612", "addr:city": null, "addr:housenumber": "26", "addr:postcode": "11201", "addr:state": null, "addr:street": "Court Street", "addr:unit": null, "alt_name": null, "branch": null, "brand": null, "brand:wikidata": null, "check_date": null, "contact:facebook": null, "fixme": null, "healthcare": null, "leisure": "fitness_centre", "level": null, "name": "New York Sports Club", "note": null, "opening_hours": "Mo-Th 05:30-22:00; Fr 05:30-21:00; Sa-Su 07:00-20:00", "phone": "+1-718-246-0600", "ref": null, "short_name": null, "sport": null, "swimming_pool": null, "website": "https://www.newyorksportsclubs.com/clubs/brooklyn-heights", "wheelchair": null }, "geometry": { "type": "Point", "coordinates": [ -73.9911939, 40.6933126 ] } },
{ "type": "Feature", "properties": { "id": "node/6035186902", "@id": "node/6035186902", "addr:city": null, "addr:housenumber": "265", "addr:postcode": "11217", "addr:state": null, "addr:street": "Schermerhorn Street", "addr:unit": null, "alt_name": null, "branch": null, "brand": null, "brand:wikidata": null, "check_date": null, "contact:facebook": null, "fixme": null, "healthcare": null, "leisure": "fitness_centre", "level": null, "name": "Chelsea Piers Fitness", "note": null, "opening_hours": null, "phone": null, "ref": null, "short_name": null, "sport": null, "swimming_pool": "yes", "website": null, "wheelchair": null }, "geometry": { "type": "Point", "coordinates": [ -73.9831242, 40.6879861 ] } },
{ "type": "Feature", "properties": { "id": "node/6317277260", "@id": "node/6317277260", "addr:city": null, "addr:housenumber": null, "addr:postcode": null, "addr:state": null, "addr:street": null, "addr:unit": null, "alt_name": null, "branch": null, "brand": null, "brand:wikidata": null, "check_date": null, "contact:facebook": "https://www.facebook.com/theflooronatlantic/", "fixme": null, "healthcare": null, "leisure": "fitness_centre", "level": "1", "name": "The Floor", "note": null, "opening_hours": "Mo-Su 07:00-20:00", "phone": "+1-917-603-4054", "ref": null, "short_name": null, "sport": "pilates;yoga", "swimming_pool": null, "website": "https://www.theflooronatlantic.com", "wheelchair": null }, "geometry": { "type": "Point", "coordinates": [ -73.9886559, 40.6880983 ] } },
{ "type": "Feature", "properties": { "id": "node/6319844693", "@id": "node/6319844693", "addr:city": "Brooklyn", "addr:housenumber": "252", "addr:postcode": "11201", "addr:state": "NY", "addr:street": "Atlantic Avenue", "addr:unit": null, "alt_name": null, "branch": "Boerum Hill", "brand": "Blink Fitness", "brand:wikidata": "Q65621568", "check_date": null, "contact:facebook": null, "fixme": null, "healthcare": null, "leisure": "fitness_centre", "level": null, "name": "Blink Fitness", "note": null, "opening_hours": "Mo-Th 05:00-23:00; Fr 05:00-22:00; Sa-Su 07:00-19:00", "phone": "+1-347-991-8701", "ref": null, "short_name": null, "sport": null, "swimming_pool": null, "website": "https://www.blinkfitness.com/locations/boerum-hill", "wheelchair": null }, "geometry": { "type": "Point", "coordinates": [ -73.9908897, 40.6886317 ] } },
{ "type": "Feature", "properties": { "id": "node/6329603988", "@id": "node/6329603988", "addr:city": null, "addr:housenumber": null, "addr:postcode": null, "addr:state": null, "addr:street": null, "addr:unit": null, "alt_name": null, "branch": null, "brand": null, "brand:wikidata": null, "check_date": null, "contact:facebook": null, "fixme": null, "healthcare": null, "leisure": "fitness_centre", "level": null, "name": "Fort Pilates", "note": null, "opening_hours": null, "phone": null, "ref": null, "short_name": null, "sport": "pilates", "swimming_pool": null, "website": null, "wheelchair": null }, "geometry": { "type": "Point", "coordinates": [ -73.9750176, 40.6863846 ] } },
{ "type": "Feature", "properties": { "id": "node/6372878733", "@id": "node/6372878733", "addr:city": null, "addr:housenumber": null, "addr:postcode": null, "addr:state": null, "addr:street": null, "addr:unit": null, "alt_name": null, "branch": null, "brand": null, "brand:wikidata": null, "check_date": null, "contact:facebook": null, "fixme": null, "healthcare": null, "leisure": "fitness_centre", "level": null, "name": "Wealth Fitness", "note": null, "opening_hours": null, "phone": "+1-718-522-1248", "ref": null, "short_name": null, "sport": null, "swimming_pool": null, "website": "https://wealthfitnessbk.com", "wheelchair": null }, "geometry": { "type": "Point", "coordinates": [ -73.9968792, 40.6911032 ] } },
{ "type": "Feature", "properties": { "id": "node/6389330772", "@id": "node/6389330772", "addr:city": null, "addr:housenumber": null, "addr:postcode": null, "addr:state": null, "addr:street": null, "addr:unit": null, "alt_name": null, "branch": null, "brand": null, "brand:wikidata": null, "check_date": null, "contact:facebook": null, "fixme": null, "healthcare": null, "leisure": "fitness_centre", "level": null, "name": "The Shala Yoga House", "note": null, "opening_hours": null, "phone": "+1-212-979-9988", "ref": null, "short_name": null, "sport": "yoga", "swimming_pool": null, "website": "https://theshala.com", "wheelchair": null }, "geometry": { "type": "Point", "coordinates": [ -73.9750272, 40.6873212 ] } },
{ "type": "Feature", "properties": { "id": "node/6422095824", "@id": "node/6422095824", "addr:city": null, "addr:housenumber": null, "addr:postcode": null, "addr:state": null, "addr:street": null, "addr:unit": null, "alt_name": null, "branch": null, "brand": null, "brand:wikidata": null, "check_date": null, "contact:facebook": null, "fixme": null, "healthcare": null, "leisure": "fitness_centre", "level": null, "name": "Finetune Pilates Studio", "note": null, "opening_hours": null, "phone": "+1-718-802-0928", "ref": null, "short_name": null, "sport": "pilates", "swimming_pool": null, "website": "https://www.finetunepilates.com", "wheelchair": null }, "geometry": { "type": "Point", "coordinates": [ -73.987513, 40.6882113 ] } },
{ "type": "Feature", "properties": { "id": "node/6534166834", "@id": "node/6534166834", "addr:city": null, "addr:housenumber": "196", "addr:postcode": "11201", "addr:state": null, "addr:street": "State Street", "addr:unit": null, "alt_name": null, "branch": null, "brand": null, "brand:wikidata": null, "check_date": null, "contact:facebook": null, "fixme": null, "healthcare": null, "leisure": "fitness_centre", "level": null, "name": "Streamline Pilates", "note": null, "opening_hours": null, "phone": "+1-718-488-8688", "ref": null, "short_name": null, "sport": "pilates", "swimming_pool": null, "website": "https://streamlinepilates.com", "wheelchair": null }, "geometry": { "type": "Point", "coordinates": [ -73.9924571, 40.690336 ] } },
{ "type": "Feature", "properties": { "id": "node/6534166848", "@id": "node/6534166848", "addr:city": "Brooklyn", "addr:housenumber": "66", "addr:postcode": "11201", "addr:state": "NY", "addr:street": "Boerum Place", "addr:unit": null, "alt_name": null, "branch": null, "brand": "Planet Fitness", "brand:wikidata": "Q7201095", "check_date": null, "contact:facebook": null, "fixme": null, "healthcare": null, "leisure": "fitness_centre", "level": null, "name": "Planet Fitness", "note": "The address of this Planet Fitness, 66 Boerum Place, is also the correct address of the entire seperate building next door (St. Vincent's, bin 3002801)", "opening_hours": "Mo-Th 00:00-24:00; Fr 00:00-22:00; Sa-Su 07:00-19:00", "phone": "+1-718-933-4671", "ref": null, "short_name": null, "sport": null, "swimming_pool": null, "website": "https://www.planetfitness.com/gyms/brooklyn-boerum-place-ny", "wheelchair": null }, "geometry": { "type": "Point", "coordinates": [ -73.9906221, 40.6894832 ] } },
{ "type": "Feature", "properties": { "id": "node/6554175160", "@id": "node/6554175160", "addr:city": null, "addr:housenumber": "67", "addr:postcode": "11201", "addr:state": null, "addr:street": "Smith Street", "addr:unit": null, "alt_name": null, "branch": null, "brand": null, "brand:wikidata": null, "check_date": null, "contact:facebook": null, "fixme": null, "healthcare": null, "leisure": "fitness_centre", "level": null, "name": "The Row House", "note": null, "opening_hours": "Mo-Th 06:00-21:30; Fr 06:00-19:00; Sa-Su 08:00-13:00", "phone": "+1-646-859-7776", "ref": null, "short_name": null, "sport": "rowing", "swimming_pool": null, "website": "https://www.therowhouse.com/location/boerum-hill", "wheelchair": null }, "geometry": { "type": "Point", "coordinates": [ -73.9883553, 40.6894565 ] } },
{ "type": "Feature", "properties": { "id": "node/6554175161", "@id": "node/6554175161", "addr:city": null, "addr:housenumber": "71", "addr:postcode": "11201", "addr:state": null, "addr:street": "Smith Street", "addr:unit": null, "alt_name": null, "branch": null, "brand": "F45 Training", "brand:wikidata": "Q64390973", "check_date": null, "contact:facebook": null, "fixme": null, "healthcare": null, "leisure": "fitness_centre", "level": null, "name": "F45 Training", "note": null, "opening_hours": null, "phone": "+1-347-549-0385", "ref": null, "short_name": "F45", "sport": null, "swimming_pool": null, "website": "https://f45training.com/boerumhill/", "wheelchair": null }, "geometry": { "type": "Point", "coordinates": [ -73.9883177, 40.6895179 ] } },
{ "type": "Feature", "properties": { "id": "node/6681877741", "@id": "node/6681877741", "addr:city": null, "addr:housenumber": null, "addr:postcode": null, "addr:state": null, "addr:street": null, "addr:unit": null, "alt_name": null, "branch": null, "brand": null, "brand:wikidata": null, "check_date": "2024-10-10", "contact:facebook": null, "fixme": null, "healthcare": null, "leisure": "fitness_centre", "level": null, "name": "The Little Gym", "note": null, "opening_hours": null, "phone": null, "ref": null, "short_name": null, "sport": null, "swimming_pool": null, "website": null, "wheelchair": null }, "geometry": { "type": "Point", "coordinates": [ -73.9903431, 40.7026848 ] } },
{ "type": "Feature", "properties": { "id": "node/6896325797", "@id": "node/6896325797", "addr:city": null, "addr:housenumber": null, "addr:postcode": null, "addr:state": null, "addr:street": null, "addr:unit": null, "alt_name": null, "branch": null, "brand": null, "brand:wikidata": null, "check_date": null, "contact:facebook": null, "fixme": null, "healthcare": null, "leisure": "fitness_centre", "level": "-1", "name": "Form Fitness", "note": null, "opening_hours": "Mo-Th 06:00-20:00; Fr 06:00-18:00; Sa 08:00-14:00", "phone": "+1-914-829-8263", "ref": null, "short_name": null, "sport": null, "swimming_pool": null, "website": "https://www.formfitnessbk.com", "wheelchair": "no" }, "geometry": { "type": "Point", "coordinates": [ -73.9910285, 40.69299 ] } },
{ "type": "Feature", "properties": { "id": "node/6896325803", "@id": "node/6896325803", "addr:city": null, "addr:housenumber": "194", "addr:postcode": "11201", "addr:state": null, "addr:street": "Joralemon Street", "addr:unit": null, "alt_name": null, "branch": null, "brand": "Equinox", "brand:wikidata": "Q5384535", "check_date": null, "contact:facebook": null, "fixme": null, "healthcare": null, "leisure": "fitness_centre", "level": null, "name": "Equinox", "note": null, "opening_hours": "Mo-We 05:30-23:00; Th 05:30-22:00; Fr 05:30-21:00; Sa-Su 07:00-20:00", "phone": "+1-718-522-7533", "ref": null, "short_name": null, "sport": null, "swimming_pool": null, "website": "https://www.equinox.com/clubs/new-york/brooklyn/brooklynheights", "wheelchair": null }, "geometry": { "type": "Point", "coordinates": [ -73.9914917, 40.6925012 ] } },
{ "type": "Feature", "properties": { "id": "node/6896363476", "@id": "node/6896363476", "addr:city": "Brooklyn", "addr:housenumber": "55", "addr:postcode": "11201", "addr:state": "NY", "addr:street": "Court Street", "addr:unit": null, "alt_name": null, "branch": null, "brand": "SoulCycle", "brand:wikidata": "Q17084730", "check_date": null, "contact:facebook": null, "fixme": null, "healthcare": null, "leisure": "fitness_centre", "level": null, "name": "SoulCycle", "note": null, "opening_hours": null, "phone": "+1-718-858-7685", "ref": null, "short_name": null, "sport": "cycling", "swimming_pool": null, "website": "https://www.soul-cycle.com/studios/ny-brooklyn-heights/", "wheelchair": null }, "geometry": { "type": "Point", "coordinates": [ -73.9909672, 40.6921691 ] } },
{ "type": "Feature", "properties": { "id": "node/7137510271", "@id": "node/7137510271", "addr:city": null, "addr:housenumber": null, "addr:postcode": null, "addr:state": null, "addr:street": null, "addr:unit": null, "alt_name": null, "branch": null, "brand": null, "brand:wikidata": null, "check_date": null, "contact:facebook": null, "fixme": null, "healthcare": null, "leisure": "fitness_centre", "level": null, "name": "Sarai", "note": null, "opening_hours": null, "phone": "+1-718-855-2973", "ref": null, "short_name": null, "sport": "yoga", "swimming_pool": null, "website": "https://www.sarainyc.com", "wheelchair": null }, "geometry": { "type": "Point", "coordinates": [ -73.9731464, 40.6931369 ] } },
{ "type": "Feature", "properties": { "id": "node/7147454647", "@id": "node/7147454647", "addr:city": null, "addr:housenumber": "351", "addr:postcode": "11238", "addr:state": null, "addr:street": "Washington Avenue", "addr:unit": null, "alt_name": null, "branch": null, "brand": null, "brand:wikidata": null, "check_date": null, "contact:facebook": "https://www.facebook.com/GreysLLC", "fixme": null, "healthcare": null, "leisure": "fitness_centre", "level": null, "name": "Grey's Gym", "note": null, "opening_hours": "Mo-Fr 06:00-22:00; Sa-Su 06:00-18:00", "phone": "+1-929-295-9797", "ref": null, "short_name": null, "sport": null, "swimming_pool": null, "website": null, "wheelchair": null }, "geometry": { "type": "Point", "coordinates": [ -73.9655874, 40.688096 ] } },
{ "type": "Feature", "properties": { "id": "node/7161457144", "@id": "node/7161457144", "addr:city": null, "addr:housenumber": null, "addr:postcode": null, "addr:state": null, "addr:street": null, "addr:unit": null, "alt_name": null, "branch": null, "brand": null, "brand:wikidata": null, "check_date": null, "contact:facebook": null, "fixme": null, "healthcare": null, "leisure": "fitness_centre", "level": null, "name": "Dou Yoga", "note": null, "opening_hours": null, "phone": "+1-718-638-1569", "ref": null, "short_name": null, "sport": "yoga", "swimming_pool": null, "website": "https://www.dou-yoga.com", "wheelchair": null }, "geometry": { "type": "Point", "coordinates": [ -73.9605265, 40.6874272 ] } },
{ "type": "Feature", "properties": { "id": "node/7795032953", "@id": "node/7795032953", "addr:city": "Brooklyn", "addr:housenumber": "384", "addr:postcode": "11201", "addr:state": "NY", "addr:street": "Bridge Street", "addr:unit": null, "alt_name": "MAC Brooklyn", "branch": null, "brand": null, "brand:wikidata": null, "check_date": null, "contact:facebook": null, "fixme": null, "healthcare": null, "leisure": "fitness_centre", "level": "4", "name": "Manhattan Athletic Club", "note": null, "opening_hours": null, "phone": "+1-718-852-8820", "ref": null, "short_name": null, "sport": "fitness", "swimming_pool": null, "website": "https://www.macgym.com/brooklyn/", "wheelchair": null }, "geometry": { "type": "Point", "coordinates": [ -73.985447, 40.6916674 ] } },
{ "type": "Feature", "properties": { "id": "node/8569965508", "@id": "node/8569965508", "addr:city": null, "addr:housenumber": null, "addr:postcode": null, "addr:state": null, "addr:street": null, "addr:unit": null, "alt_name": null, "branch": null, "brand": null, "brand:wikidata": null, "check_date": null, "contact:facebook": null, "fixme": null, "healthcare": null, "leisure": "fitness_centre", "level": null, "name": "Vera Yoga", "note": null, "opening_hours": null, "phone": "+1-917-470-9599", "ref": null, "short_name": null, "sport": "yoga", "swimming_pool": null, "website": "https://www.verayoga.com/boerum-hill/", "wheelchair": null }, "geometry": { "type": "Point", "coordinates": [ -73.9874603, 40.6881323 ] } },
{ "type": "Feature", "properties": { "id": "node/8613813410", "@id": "node/8613813410", "addr:city": "Brooklyn", "addr:housenumber": "976", "addr:postcode": "11238", "addr:state": "NY", "addr:street": "Fulton Street", "addr:unit": null, "alt_name": null, "branch": null, "brand": null, "brand:wikidata": null, "check_date": null, "contact:facebook": null, "fixme": null, "healthcare": null, "leisure": "fitness_centre", "level": null, "name": "Prema Yoga", "note": null, "opening_hours": null, "phone": null, "ref": null, "short_name": null, "sport": "yoga", "swimming_pool": null, "website": "https://www.premayogabrooklyn.com", "wheelchair": null }, "geometry": { "type": "Point", "coordinates": [ -73.9618663, 40.6822875 ] } },
{ "type": "Feature", "properties": { "id": "node/9123149745", "@id": "node/9123149745", "addr:city": null, "addr:housenumber": null, "addr:postcode": null, "addr:state": null, "addr:street": null, "addr:unit": null, "alt_name": null, "branch": null, "brand": null, "brand:wikidata": null, "check_date": null, "contact:facebook": null, "fixme": null, "healthcare": null, "leisure": "fitness_centre", "level": "1", "name": "Pilates Heights", "note": null, "opening_hours": null, "phone": "+1-718-522-2580", "ref": null, "short_name": null, "sport": "pilates", "swimming_pool": null, "website": "https://www.pilatesheightsbk.com", "wheelchair": null }, "geometry": { "type": "Point", "coordinates": [ -73.9922991, 40.6936255 ] } },
{ "type": "Feature", "properties": { "id": "node/9194885436", "@id": "node/9194885436", "addr:city": null, "addr:housenumber": null, "addr:postcode": null, "addr:state": null, "addr:street": null, "addr:unit": null, "alt_name": null, "branch": null, "brand": "The Bar Method", "brand:wikidata": "Q117599728", "check_date": null, "contact:facebook": null, "fixme": null, "healthcare": null, "leisure": "fitness_centre", "level": null, "name": "The Bar Method", "note": null, "opening_hours": null, "phone": null, "ref": null, "short_name": null, "sport": "barre", "swimming_pool": null, "website": null, "wheelchair": null }, "geometry": { "type": "Point", "coordinates": [ -73.9900491, 40.6882816 ] } },
{ "type": "Feature", "properties": { "id": "node/9330502771", "@id": "node/9330502771", "addr:city": null, "addr:housenumber": null, "addr:postcode": null, "addr:state": null, "addr:street": null, "addr:unit": null, "alt_name": null, "branch": null, "brand": null, "brand:wikidata": null, "check_date": null, "contact:facebook": null, "fixme": null, "healthcare": null, "leisure": "fitness_centre", "level": null, "name": "Wundabar Pilates", "note": null, "opening_hours": null, "phone": "+1-718-425-0930", "ref": null, "short_name": null, "sport": "pilates", "swimming_pool": null, "website": "https://www.wundabar.com", "wheelchair": null }, "geometry": { "type": "Point", "coordinates": [ -73.9931399, 40.6946756 ] } },
{ "type": "Feature", "properties": { "id": "node/9525654463", "@id": "node/9525654463", "addr:city": "Brooklyn", "addr:housenumber": "186", "addr:postcode": "11201", "addr:state": "NY", "addr:street": "Montague Street", "addr:unit": "2nd", "alt_name": null, "branch": null, "brand": "Orangetheory Fitness", "brand:wikidata": "Q25005163", "check_date": null, "contact:facebook": null, "fixme": null, "healthcare": null, "leisure": "fitness_centre", "level": null, "name": "Orangetheory Fitness", "note": null, "opening_hours": null, "phone": "+1 917-201-7013", "ref": "1233", "short_name": null, "sport": null, "swimming_pool": null, "website": null, "wheelchair": null }, "geometry": { "type": "Point", "coordinates": [ -73.9916811, 40.6938088 ] } },
{ "type": "Feature", "properties": { "id": "node/9525802260", "@id": "node/9525802260", "addr:city": null, "addr:housenumber": null, "addr:postcode": null, "addr:state": null, "addr:street": null, "addr:unit": null, "alt_name": null, "branch": null, "brand": null, "brand:wikidata": null, "check_date": null, "contact:facebook": null, "fixme": null, "healthcare": null, "leisure": "fitness_centre", "level": null, "name": "Heatwise", "note": null, "opening_hours": null, "phone": "+1-347-763-0029", "ref": null, "short_name": null, "sport": "yoga", "swimming_pool": null, "website": "https://www.heatwise-studio.com", "wheelchair": null }, "geometry": { "type": "Point", "coordinates": [ -73.9917234, 40.6935372 ] } },
{ "type": "Feature", "properties": { "id": "node/9583805197", "@id": "node/9583805197", "addr:city": null, "addr:housenumber": null, "addr:postcode": null, "addr:state": null, "addr:street": null, "addr:unit": null, "alt_name": null, "branch": null, "brand": null, "brand:wikidata": null, "check_date": null, "contact:facebook": null, "fixme": null, "healthcare": null, "leisure": "fitness_centre", "level": null, "name": "CKO Kickboxing", "note": null, "opening_hours": null, "phone": "+1-718-306-9433", "ref": null, "short_name": null, "sport": "kickboxing", "swimming_pool": null, "website": "https://www.ckokickboxing.com/ny-brooklyn-clinton-hill", "wheelchair": null }, "geometry": { "type": "Point", "coordinates": [ -73.9637584, 40.6938226 ] } },
{ "type": "Feature", "properties": { "id": "node/9747463478", "@id": "node/9747463478", "addr:city": null, "addr:housenumber": null, "addr:postcode": null, "addr:state": null, "addr:street": null, "addr:unit": null, "alt_name": null, "branch": null, "brand": null, "brand:wikidata": null, "check_date": null, "contact:facebook": null, "fixme": null, "healthcare": null, "leisure": "fitness_centre", "level": null, "name": "Bodycraft", "note": null, "opening_hours": null, "phone": null, "ref": null, "short_name": null, "sport": null, "swimming_pool": null, "website": "https://www.letsbodycraft.com", "wheelchair": null }, "geometry": { "type": "Point", "coordinates": [ -73.9967924, 40.6910801 ] } },
{ "type": "Feature", "properties": { "id": "node/10172687822", "@id": "node/10172687822", "addr:city": null, "addr:housenumber": "55", "addr:postcode": "11201", "addr:state": null, "addr:street": "Prospect Street", "addr:unit": null, "alt_name": null, "branch": null, "brand": null, "brand:wikidata": null, "check_date": null, "contact:facebook": null, "fixme": null, "healthcare": null, "leisure": "fitness_centre", "level": null, "name": "Abhaya Yoga", "note": null, "opening_hours": null, "phone": null, "ref": null, "short_name": null, "sport": "yoga", "swimming_pool": null, "website": "https://abhayayoga.com", "wheelchair": null }, "geometry": { "type": "Point", "coordinates": [ -73.9881302, 40.7007728 ] } },
{ "type": "Feature", "properties": { "id": "node/10172687824", "@id": "node/10172687824", "addr:city": null, "addr:housenumber": "55", "addr:postcode": "11201", "addr:state": null, "addr:street": "Prospect Street", "addr:unit": null, "alt_name": "F45 Training", "branch": null, "brand": null, "brand:wikidata": null, "check_date": null, "contact:facebook": null, "fixme": null, "healthcare": null, "leisure": "fitness_centre", "level": null, "name": "F45", "note": null, "opening_hours": null, "phone": "+1-929-359-9005", "ref": null, "short_name": null, "sport": null, "swimming_pool": null, "website": "https://f45training.com/dumbo/home", "wheelchair": null }, "geometry": { "type": "Point", "coordinates": [ -73.9884226, 40.7007821 ] } },
{ "type": "Feature", "properties": { "id": "node/10560845075", "@id": "node/10560845075", "addr:city": "Brooklyn", "addr:housenumber": "168", "addr:postcode": "11201", "addr:state": "NY", "addr:street": "Front Street", "addr:unit": null, "alt_name": null, "branch": null, "brand": "Life Time", "brand:wikidata": "Q6545004", "check_date": null, "contact:facebook": null, "fixme": "verify location along building", "healthcare": null, "leisure": "fitness_centre", "level": null, "name": "Life Time", "note": null, "opening_hours": null, "phone": "+1-718-233-8100", "ref": null, "short_name": null, "sport": null, "swimming_pool": null, "website": "https://www.lifetime.life/life-time-locations/ny-dumbo.html", "wheelchair": null }, "geometry": { "type": "Point", "coordinates": [ -73.9860747, 40.7022516 ] } },
{ "type": "Feature", "properties": { "id": "node/10726941727", "@id": "node/10726941727", "addr:city": null, "addr:housenumber": "333", "addr:postcode": "11217", "addr:state": null, "addr:street": "Schermerhorn Street", "addr:unit": null, "alt_name": null, "branch": null, "brand": null, "brand:wikidata": null, "check_date": null, "contact:facebook": null, "fixme": null, "healthcare": null, "leisure": "fitness_centre", "level": null, "name": "CKO Kickboxing", "note": null, "opening_hours": null, "phone": "+1-718-858-8500", "ref": null, "short_name": null, "sport": null, "swimming_pool": null, "website": "https://www.ckokickboxing.com/ny-brooklyn-park-slope/", "wheelchair": null }, "geometry": { "type": "Point", "coordinates": [ -73.9807863, 40.6871076 ] } },
{ "type": "Feature", "properties": { "id": "node/11399454035", "@id": "node/11399454035", "addr:city": null, "addr:housenumber": null, "addr:postcode": null, "addr:state": null, "addr:street": null, "addr:unit": null, "alt_name": null, "branch": "Dumbo", "brand": null, "brand:wikidata": null, "check_date": null, "contact:facebook": null, "fixme": null, "healthcare": null, "leisure": "fitness_centre", "level": null, "name": "Solidcore", "note": null, "opening_hours": null, "phone": "+1-646-813-9630", "ref": null, "short_name": null, "sport": null, "swimming_pool": null, "website": "https://www.solidcore.co/ny/new-york/dumbo/", "wheelchair": null }, "geometry": { "type": "Point", "coordinates": [ -73.9884667, 40.7005943 ] } },
{ "type": "Feature", "properties": { "id": "node/11783969919", "@id": "node/11783969919", "addr:city": null, "addr:housenumber": "219", "addr:postcode": "11201", "addr:state": null, "addr:street": "Livingston Street", "addr:unit": null, "alt_name": null, "branch": "Downtown Brooklyn", "brand": null, "brand:wikidata": null, "check_date": null, "contact:facebook": null, "fixme": null, "healthcare": null, "leisure": "fitness_centre", "level": null, "name": "Solidcore", "note": null, "opening_hours": null, "phone": "+1-646-606-2522", "ref": null, "short_name": null, "sport": null, "swimming_pool": null, "website": "https://www.solidcore.co/ny/new-york/downtown-brooklyn/", "wheelchair": null }, "geometry": { "type": "Point", "coordinates": [ -73.9849425, 40.6894564 ] } },
{ "type": "Feature", "properties": { "id": "node/11875989666", "@id": "node/11875989666", "addr:city": "Brooklyn", "addr:housenumber": "42B", "addr:postcode": "11205", "addr:state": "NY", "addr:street": "Washington Avenue", "addr:unit": null, "alt_name": null, "branch": null, "brand": null, "brand:wikidata": null, "check_date": null, "contact:facebook": null, "fixme": null, "healthcare": null, "leisure": "fitness_centre", "level": null, "name": "1.2.1 Fitness", "note": null, "opening_hours": null, "phone": "+1-917-830-4715", "ref": null, "short_name": null, "sport": null, "swimming_pool": null, "website": "https://www.121fitness.info", "wheelchair": null }, "geometry": { "type": "Point", "coordinates": [ -73.9678792, 40.6974861 ] } },
{ "type": "Feature", "properties": { "id": "node/12210004873", "@id": "node/12210004873", "addr:city": null, "addr:housenumber": "262", "addr:postcode": "11201", "addr:state": null, "addr:street": "Pacific Street", "addr:unit": null, "alt_name": null, "branch": null, "brand": null, "brand:wikidata": null, "check_date": null, "contact:facebook": null, "fixme": null, "healthcare": null, "leisure": "fitness_centre", "level": null, "name": "Studio Pilates", "note": null, "opening_hours": null, "phone": "+1-917-699-6545", "ref": null, "short_name": null, "sport": "pilates", "swimming_pool": null, "website": "https://www.studiopilates.com/studios/cobble-hill/", "wheelchair": null }, "geometry": { "type": "Point", "coordinates": [ -73.9900436, 40.6880693 ] } },
{ "type": "Feature", "properties": { "id": "node/12393860660", "@id": "node/12393860660", "addr:city": null, "addr:housenumber": null, "addr:postcode": null, "addr:state": null, "addr:street": null, "addr:unit": null, "alt_name": null, "branch": "Atlantic Avenue", "brand": null, "brand:wikidata": null, "check_date": null, "contact:facebook": null, "fixme": null, "healthcare": null, "leisure": "fitness_centre", "level": null, "name": "Life Time", "note": null, "opening_hours": null, "phone": "+1-929-489-3200", "ref": null, "short_name": null, "sport": null, "swimming_pool": null, "website": "https://www.lifetime.life/locations/ny/atlantic-avenue.html", "wheelchair": null }, "geometry": { "type": "Point", "coordinates": [ -73.9741148, 40.6824684 ] } }
]
}
