{
"type": "FeatureCollection",
"name": "vet",
"crs": { "type": "name", "properties": { "name": "urn:ogc:def:crs:OGC:1.3:CRS84" } },
"features": [
{ "type": "Feature", "properties": { "id": "node/419362317", "@id": "node/419362317", "addr:city": null, "addr:housenumber": "238", "addr:postcode": "11201", "addr:state": null, "addr:street": "Atlantic Avenue", "alt_name": null, "amenity": "veterinary", "brand": "Banfield Pet Hospital", "brand:wikidata": "Q2882416", "building": null, "check_date:opening_hours": null, "email": null, "fax": null, "health_specialty:acupuncture": null, "health_specialty:dentistry": null, "health_specialty:radiology": null, "health_specialty:ultrasound": null, "height": null, "level": null, "name": "Banfield Pet Hospital", "note": null, "nycdoitt:bin": null, "opening_hours": "Mo-Sa 09:00-19:00; Su 09:00-17:00", "opening_hours:signed": null, "operator": null, "phone": "+1-718-522-0415", "reservation": null, "short_name": null, "toilets": null, "website": "https://www.banfield.com/veterinarians/ny/brooklyn/mrs", "wheelchair": null }, "geometry": { "type": "Point", "coordinates": [ -73.9912624, 40.6891366 ] } },
{ "type": "Feature", "properties": { "id": "node/2549884930", "@id": "node/2549884930", "addr:city": null, "addr:housenumber": null, "addr:postcode": null, "addr:state": null, "addr:street": null, "alt_name": null, "amenity": "veterinary", "brand": null, "brand:wikidata": null, "building": null, "check_date:opening_hours": null, "email": null, "fax": null, "health_specialty:acupuncture": null, "health_specialty:dentistry": null, "health_specialty:radiology": null, "health_specialty:ultrasound": null, "height": null, "level": null, "name": "Brooklyn Heights Veterinary Hospital", "note": null, "nycdoitt:bin": null, "opening_hours": null, "opening_hours:signed": null, "operator": null, "phone": "+1-718-624-1200", "reservation": null, "short_name": "BHVH", "toilets": null, "website": "https://www.bhvh59.com", "wheelchair": null }, "geometry": { "type": "Point", "coordinates": [ -73.993518, 40.6998884 ] } },
{ "type": "Feature", "properties": { "id": "node/2549983061", "@id": "node/2549983061", "addr:city": null, "addr:housenumber": null, "addr:postcode": null, "addr:state": null, "addr:street": null, "alt_name": null, "amenity": "veterinary", "brand": null, "brand:wikidata": null, "building": null, "check_date:opening_hours": null, "email": null, "fax": null, "health_specialty:acupuncture": null, "health_specialty:dentistry": null, "health_specialty:radiology": null, "health_specialty:ultrasound": null, "height": null, "level": null, "name": "Bond Vet", "note": null, "nycdoitt:bin": null, "opening_hours": "Mo-Su 12:00-22:00", "opening_hours:signed": null, "operator": null, "phone": "+1-718-269-7222", "reservation": null, "short_name": null, "toilets": null, "website": "https://bondvet.com", "wheelchair": null }, "geometry": { "type": "Point", "coordinates": [ -73.993665, 40.686635 ] } },
{ "type": "Feature", "properties": { "id": "node/2839628076", "@id": "node/2839628076", "addr:city": "Brooklyn", "addr:housenumber": "233", "addr:postcode": "11249", "addr:state": "NY", "addr:street": "Berry Street", "alt_name": null, "amenity": "veterinary", "brand": null, "brand:wikidata": null, "building": null, "check_date:opening_hours": null, "email": null, "fax": null, "health_specialty:acupuncture": null, "health_specialty:dentistry": null, "health_specialty:radiology": null, "health_specialty:ultrasound": null, "height": null, "level": null, "name": "North Side Veterinary", "note": null, "nycdoitt:bin": null, "opening_hours": "Mo-Th 09:00-19:00; Fr 09:00-18:00; Sa 09:00-16:00", "opening_hours:signed": null, "operator": null, "phone": "+1-718-387-0541", "reservation": null, "short_name": null, "toilets": null, "website": "https://northsideveterinaryclinic.com/", "wheelchair": null }, "geometry": { "type": "Point", "coordinates": [ -73.9621182, 40.7155965 ] } },
{ "type": "Feature", "properties": { "id": "node/5816274213", "@id": "node/5816274213", "addr:city": null, "addr:housenumber": "10", "addr:postcode": "11201", "addr:state": null, "addr:street": "Columbia Place", "alt_name": null, "amenity": "veterinary", "brand": null, "brand:wikidata": null, "building": null, "check_date:opening_hours": null, "email": null, "fax": "+1-718-797-8753", "health_specialty:acupuncture": null, "health_specialty:dentistry": null, "health_specialty:radiology": null, "health_specialty:ultrasound": null, "height": null, "level": null, "name": "Vinegar Hill Veternary Group", "note": null, "nycdoitt:bin": null, "opening_hours": "Mo-Fr 07:00-19:00, Sa 10:00-17:00", "opening_hours:signed": null, "operator": null, "phone": "+1-718-852-8281", "reservation": null, "short_name": null, "toilets": null, "website": "https://www.vhvetgroup.com", "wheelchair": null }, "geometry": { "type": "Point", "coordinates": [ -73.9985472, 40.6934802 ] } },
{ "type": "Feature", "properties": { "id": "node/5980081418", "@id": "node/5980081418", "addr:city": null, "addr:housenumber": null, "addr:postcode": null, "addr:state": null, "addr:street": null, "alt_name": null, "amenity": "veterinary", "brand": null, "brand:wikidata": null, "building": null, "check_date:opening_hours": "2023-09-03", "email": null, "fax": "+1-888-315-6150", "health_specialty:acupuncture": null, "health_specialty:dentistry": null, "health_specialty:radiology": null, "health_specialty:ultrasound": null, "height": null, "level": null, "name": "Heart of Brooklyn Veterinary Hospital", "note": null, "nycdoitt:bin": null, "opening_hours": null, "opening_hours:signed": "no", "operator": "Bill Farmer, DVM", "phone": "+1-718-855-7387", "reservation": null, "short_name": null, "toilets": null, "website": "https://www.heartofbrooklynveterinary.com/fort-greene/", "wheelchair": "yes" }, "geometry": { "type": "Point", "coordinates": [ -73.9737142, 40.6861573 ] } },
{ "type": "Feature", "properties": { "id": "node/6175354945", "@id": "node/6175354945", "addr:city": null, "addr:housenumber": null, "addr:postcode": null, "addr:state": null, "addr:street": null, "alt_name": null, "amenity": "veterinary", "brand": null, "brand:wikidata": null, "building": null, "check_date:opening_hours": null, "email": null, "fax": "+1-718-783-5505", "health_specialty:acupuncture": null, "health_specialty:dentistry": null, "health_specialty:radiology": null, "health_specialty:ultrasound": null, "height": null, "level": null, "name": "Pure Paws", "note": null, "nycdoitt:bin": null, "opening_hours": "Mo-Th 09:00-19:00; Fr 09:00-17:00; Sa-Su 10:00-16:00", "opening_hours:signed": null, "operator": null, "phone": "+1-718-783-5500", "reservation": null, "short_name": null, "toilets": null, "website": "http://brooklyn.purepawsvet.com", "wheelchair": null }, "geometry": { "type": "Point", "coordinates": [ -73.963049, 40.6825372 ] } },
{ "type": "Feature", "properties": { "id": "node/6422095819", "@id": "node/6422095819", "addr:city": null, "addr:housenumber": null, "addr:postcode": null, "addr:state": null, "addr:street": null, "alt_name": null, "amenity": "veterinary", "brand": null, "brand:wikidata": null, "building": null, "check_date:opening_hours": null, "email": null, "fax": null, "health_specialty:acupuncture": null, "health_specialty:dentistry": null, "health_specialty:radiology": null, "health_specialty:ultrasound": null, "height": null, "level": null, "name": "One Love Animal Hospital", "note": null, "nycdoitt:bin": null, "opening_hours": "Mo-Fr 09:00-19:00; Sa 10:00-18:00; Su 10:00-16:00", "opening_hours:signed": null, "operator": null, "phone": "+1-718-532-7410", "reservation": null, "short_name": null, "toilets": null, "website": "https://onelovevet.com/location_boerum_hill.php", "wheelchair": null }, "geometry": { "type": "Point", "coordinates": [ -73.9879857, 40.6883286 ] } },
{ "type": "Feature", "properties": { "id": "node/9273082073", "@id": "node/9273082073", "addr:city": null, "addr:housenumber": "87", "addr:postcode": "11249", "addr:state": null, "addr:street": "Kent Avenue", "alt_name": null, "amenity": "veterinary", "brand": null, "brand:wikidata": null, "building": null, "check_date:opening_hours": null, "email": null, "fax": null, "health_specialty:acupuncture": null, "health_specialty:dentistry": null, "health_specialty:radiology": null, "health_specialty:ultrasound": null, "height": null, "level": null, "name": "Veterinary Emergency Group", "note": null, "nycdoitt:bin": null, "opening_hours": "24/7", "opening_hours:signed": null, "operator": null, "phone": "+1-917-423-6444", "reservation": null, "short_name": "VEG", "toilets": null, "website": "https://veterinaryemergencygroup.com/locations/williamsburg-ny/", "wheelchair": null }, "geometry": { "type": "Point", "coordinates": [ -73.9605218, 40.7212463 ] } },
{ "type": "Feature", "properties": { "id": "node/9282057918", "@id": "node/9282057918", "addr:city": null, "addr:housenumber": "157", "addr:postcode": "11249", "addr:state": null, "addr:street": "Kent Avenue", "alt_name": "Williamsburg Veterinary Clinic", "amenity": "veterinary", "brand": null, "brand:wikidata": null, "building": null, "check_date:opening_hours": null, "email": null, "fax": null, "health_specialty:acupuncture": null, "health_specialty:dentistry": null, "health_specialty:radiology": null, "health_specialty:ultrasound": null, "height": null, "level": null, "name": "Williamsburg Vet Clinic", "note": null, "nycdoitt:bin": null, "opening_hours": null, "opening_hours:signed": null, "operator": null, "phone": "+1-718-302-1485", "reservation": null, "short_name": null, "toilets": null, "website": "https://williamsburgvets.com", "wheelchair": null }, "geometry": { "type": "Point", "coordinates": [ -73.9636123, 40.7184004 ] } },
{ "type": "Feature", "properties": { "id": "node/9834601279", "@id": "node/9834601279", "addr:city": null, "addr:housenumber": "476", "addr:postcode": "11205", "addr:state": null, "addr:street": "Myrtle Avenue", "alt_name": null, "amenity": "veterinary", "brand": null, "brand:wikidata": null, "building": null, "check_date:opening_hours": null, "email": null, "fax": null, "health_specialty:acupuncture": null, "health_specialty:dentistry": null, "health_specialty:radiology": null, "health_specialty:ultrasound": null, "height": null, "level": null, "name": "Clinton Hill Animal Clinic", "note": null, "nycdoitt:bin": null, "opening_hours": null, "opening_hours:signed": null, "operator": null, "phone": null, "reservation": null, "short_name": null, "toilets": null, "website": null, "wheelchair": null }, "geometry": { "type": "Point", "coordinates": [ -73.9662472, 40.6932904 ] } },
{ "type": "Feature", "properties": { "id": "node/9834601280", "@id": "node/9834601280", "addr:city": null, "addr:housenumber": "524", "addr:postcode": "11205", "addr:state": null, "addr:street": "Myrtle Avenue", "alt_name": null, "amenity": "veterinary", "brand": null, "brand:wikidata": null, "building": null, "check_date:opening_hours": null, "email": null, "fax": null, "health_specialty:acupuncture": null, "health_specialty:dentistry": null, "health_specialty:radiology": null, "health_specialty:ultrasound": null, "height": null, "level": null, "name": "Bond Vet", "note": null, "nycdoitt:bin": null, "opening_hours": null, "opening_hours:signed": null, "operator": null, "phone": null, "reservation": null, "short_name": null, "toilets": null, "website": null, "wheelchair": null }, "geometry": { "type": "Point", "coordinates": [ -73.9641366, 40.6934602 ] } },
{ "type": "Feature", "properties": { "id": "node/10705463651", "@id": "node/10705463651", "addr:city": null, "addr:housenumber": "345", "addr:postcode": "11217", "addr:state": null, "addr:street": "Schermerhorn Street", "alt_name": null, "amenity": "veterinary", "brand": null, "brand:wikidata": null, "building": null, "check_date:opening_hours": null, "email": null, "fax": null, "health_specialty:acupuncture": null, "health_specialty:dentistry": null, "health_specialty:radiology": null, "health_specialty:ultrasound": null, "height": null, "level": null, "name": "All Ears", "note": null, "nycdoitt:bin": null, "opening_hours": "Mo-Fr 09:00-19:00; Sa 09:00-16:00", "opening_hours:signed": null, "operator": null, "phone": "+1-646-434-2610", "reservation": null, "short_name": null, "toilets": null, "website": "https://allearsvet.com", "wheelchair": null }, "geometry": { "type": "Point", "coordinates": [ -73.9806299, 40.6870476 ] } },
{ "type": "Feature", "properties": { "id": "node/10836119572", "@id": "node/10836119572", "addr:city": "Brooklyn", "addr:housenumber": "118", "addr:postcode": "11249", "addr:state": "NY", "addr:street": "North 4th Street", "alt_name": null, "amenity": "veterinary", "brand": null, "brand:wikidata": null, "building": null, "check_date:opening_hours": null, "email": "hi@smalldoorvet.com", "fax": null, "health_specialty:acupuncture": null, "health_specialty:dentistry": null, "health_specialty:radiology": null, "health_specialty:ultrasound": null, "height": null, "level": null, "name": "Small Door", "note": null, "nycdoitt:bin": null, "opening_hours": "Mo-Fr 08:00-18:00; Sa 09:00-17:00", "opening_hours:signed": null, "operator": null, "phone": "+1-718-504-6363", "reservation": null, "short_name": null, "toilets": null, "website": null, "wheelchair": null }, "geometry": { "type": "Point", "coordinates": [ -73.9608368, 40.7171214 ] } }
]
}
